H-2A R/B                
1 28932U 06002B   26204.17012893  .00008552  00000+0  40385-3 0  9999
2 28932  98.2600   3.2752 0051197 139.1575 221.3511 15.18542301114982
RESURS-DK 1             
1 29228U 06021A   26204.19223332  .00001576  00000+0  94295-4 0  9992
2 29228  69.9299 246.3397 0007563 262.6323  97.3984 15.13340399108027
CZ-4B R/B               
1 29507U 06046C   26204.11446762  .00004325  00000+0  21296-3 0  9990
2 29507  97.5434 248.6114 0033332 155.0185 205.2671 15.18028853 80587
CZ-2C R/B               
1 31114U 07010B   26204.27042091  .00000077  00000+0  54595-4 0  9992
2 31114  98.4119 310.8610 0057767 259.7960  99.6700 14.20283420998961
COSMO-SKYMED 1          
1 31598U 07023A   26204.29195236  .00003096  00000+0  27253-3 0  9998
2 31598  97.8863  36.4546 0001934  93.2124 266.9319 14.97254378 35199
COSMOS 2428             
1 31792U 07029A   26203.61238498  .00000336  00000+0  20603-3 0  9999
2 31792  70.9381 280.0995 0007325  66.5360 293.6530 14.12939754983157
SL-16 R/B               
1 31793U 07029B   26204.16636236  .00000306  00000+0  18342-3 0  9997
2 31793  70.9740 247.5960 0001927 260.3060 161.0294 14.14856867984533
KORONAS-FOTON           
1 33504U 09003A   26204.25771573  .00013774  00000+0  27655-3 0  9997
2 33504  82.4304 134.6138 0011376  36.8830 323.3199 15.46453577966671
CZ-2C R/B               
1 37731U 11030B   26204.32857277  .00000794  00000+0  10592-3 0  9990
2 37731  97.8674 159.0692 0050648 268.9369 251.9547 14.81543495810176
H-2A R/B                
1 38341U 12025E   26204.21308543  .00002000  00000+0  18203-3 0  9997
2 38341  98.4854 182.3379 0042763 227.8142 131.9443 14.95858235768477
SHIJIAN-16 (SJ-16)      
1 39358U 13057A   26204.29913245  .00001090  00000+0  10834-3 0  9991
2 39358  74.9730 288.2850 0015436 145.1632 215.0570 14.92686342691735
SL-4 R/B                
1 39679U 14021B   26203.83084923  .00010673  00000+0  21760-3 0  9997
2 39679  51.6070  36.0660 0089279 236.6396 122.6021 15.42597012677118
ALOS-2                  
1 39766U 14029A   26204.25511654  .00001165  00000+0  16281-3 0  9993
2 39766  97.9224 300.9037 0001614  94.8947 265.2448 14.79473785656914
YAOGAN-29               
1 41038U 15069A   26204.34036465 -.00000102  00000+0 -59048-5 0  9997
2 41038  98.0026 233.0282 0000086 120.0370 240.0852 14.83109806575985
ASTRO-H (HITOMI)        
1 41337U 16012A   26204.24442598  .00002041  00000+0  11464-3 0  9995
2 41337  30.9974 201.2912 0009703 255.7612 104.1948 15.10656796572744
HXMT (HUIYAN)           
1 42758U 17034A   26203.78339625  .00005151  00000+0  25187-3 0  9994
2 42758  43.0151 344.7924 0031256   8.7119 351.4266 15.18737052503079
SAOCOM 1A               
1 43641U 18076A   26204.25421925 -.00000300  00000+0 -31142-4 0  9993
2 43641  97.8898  30.4792 0001452  87.7710 272.3669 14.82148829421443
H-2A R/B                
1 43682U 18084L   26204.18322577  .00021281  00000+0  42819-3 0  9993
2 43682  98.8521  90.9710 0020228 270.3716  89.5211 15.46437470426687
SAOCOM 1B               
1 46265U 20059A   26204.28542659  .00000701  00000+0  94570-4 0  9990
2 46265  97.8904  29.6066 0001533  86.6038 273.5351 14.82148296318838
CSS (TIANHE)            
1 48274U 21035A   26204.03437983  .00011304  00000+0  14912-3 0  9995
2 48274  41.4690 104.3124 0001739 306.7625  53.3054 15.58280026298764
COSMOS 2550             
1 48865U 21056A   26204.27966582  .00005695  00000+0  17846-3 0  9997
2 48865  67.1441 350.7269 0008564 269.2841  90.7332 15.33889469284254
CZ-2C R/B               
1 52794U 22058K   26203.65739686  .00044670  00000+0  45019-3 0  9999
2 52794  50.1859 338.6055 0029939  53.7112 306.6622 15.64318676231196
CZ-2C R/B               
1 54039U 22132E   26204.01509291  .00075279  00000+0  48684-3 0  9994
2 54039  97.2895 212.7544 0008404 302.2652  57.7799 15.75810705211584
GSLV R/B                
1 54149U 22138AN  26204.20613724  .00002094  00000+0  17684-3 0  9991
2 54149  87.3816 120.8893 0022532  25.2114 335.0212 14.97411179204206
XRISM                   
1 57800U 23137A   26204.15455041  .00004502  00000+0  24516-3 0  9996
2 57800  31.0018 126.5672 0007816 325.3983  34.6146 15.12714303158318
ACS3                    
1 59588U 24077B   26204.21323010  .00034656  00000+0  23572-1 0  9994
2 59588  97.1779 115.0326 0130614  27.5485 333.2526 13.95762580113062
SPACEMOBILE-003         
1 61045U 24163A   26204.03425621  .00002495  00000+0  12678-3 0  9995
2 61045  52.9686 144.5962 0003596 220.2566 139.8162 15.20673687103224
SPACEMOBILE-005         
1 61046U 24163B   26204.21492986  .00001507  00000+0  82557-4 0  9991
2 61046  52.9740 143.7232 0008301 219.1098 140.9297 15.20624425103243
SPACEMOBILE-001         
1 61047U 24163C   26204.21320313  .00000420  00000+0  33609-4 0  9993
2 61047  52.9699 143.4348 0006745 217.4420 142.6105 15.20678489103248
SPACEMOBILE-002         
1 61048U 24163D   26204.06618635  .00022234  00000+0  10167-2 0  9993
2 61048  52.9773 144.1623 0004783 212.6215 147.4484 15.20478362103224
