OBJECT_NAME,OBJECT_ID,EPOCH,MEAN_MOTION,ECCENTRICITY,INCLINATION,RA_OF_ASC_NODE,ARG_OF_PERICENTER,MEAN_ANOMALY,EPHEMERIS_TYPE,CLASSIFICATION_TYPE,NORAD_CAT_ID,ELEMENT_SET_NO,REV_AT_EPOCH,BSTAR,MEAN_MOTION_DOT,MEAN_MOTION_DDOT
H-2A R/B,2006-002B,2026-07-23T04:04:59.139552,15.18542301,.00511975,98.2600,3.2752,139.1575,221.3511,0,U,28932,999,11498,.40384881E-3,.8552E-4,0
RESURS-DK 1,2006-021A,2026-07-23T04:36:48.958848,15.13340399,.00075633,69.9299,246.3397,262.6323,97.3984,0,U,29228,999,10802,.94295232E-4,.1576E-4,0
CZ-4B R/B,2006-046C,2026-07-23T02:44:50.002368,15.18028853,.00333328,97.5434,248.6114,155.0185,205.2671,0,U,29507,999,8058,.21295692E-3,.4325E-4,0
CZ-2C R/B,2007-010B,2026-07-23T06:29:24.366624,14.20283420,.00577672,98.4119,310.8610,259.7960,99.6700,0,U,31114,999,99896,.5459467E-4,.77E-6,0
COSMO-SKYMED 1,2007-023A,2026-07-23T07:00:24.683904,14.97254378,.00019348,97.8863,36.4546,93.2124,266.9319,0,U,31598,999,3519,.27252828E-3,.3096E-4,0
COSMOS 2428,2007-029A,2026-07-22T14:41:50.062272,14.12939754,.00073258,70.9381,280.0995,66.5360,293.6530,0,U,31792,999,98315,.20603094E-3,.336E-5,0
SL-16 R/B,2007-029B,2026-07-23T03:59:33.707904,14.14856867,.00019271,70.9740,247.5960,260.3060,161.0294,0,U,31793,999,98453,.18342399E-3,.306E-5,0
KORONAS-FOTON,2009-003A,2026-07-23T06:11:06.639072,15.46453577,.00113763,82.4304,134.6138,36.8830,323.3199,0,U,33504,999,96667,.27654784E-3,.13774E-3,0
CZ-2C R/B,2011-030B,2026-07-23T07:53:08.687328,14.81543495,.00506482,97.8674,159.0692,268.9369,251.9547,0,U,37731,999,81017,.10591814E-3,.794E-5,0
H-2A R/B,2012-025E,2026-07-23T05:06:50.581152,14.95858235,.00427632,98.4854,182.3379,227.8142,131.9443,0,U,38341,999,76847,.18202983E-3,.2E-4,0
SHIJIAN-16 (SJ-16),2013-057A,2026-07-23T07:10:45.043680,14.92686342,.0015436,74.9730,288.2850,145.1632,215.0570,0,U,39358,999,69173,.10833767E-3,.109E-4,0
SL-4 R/B,2014-021B,2026-07-22T19:56:25.373472,15.42597012,.00892795,51.6070,36.0660,236.6396,122.6021,0,U,39679,999,67711,.21759825E-3,.10673E-3,0
ALOS-2,2014-029A,2026-07-23T06:07:22.069056,14.79473785,.00016147,97.9224,300.9037,94.8947,265.2448,0,U,39766,999,65691,.16281496E-3,.1165E-4,0
YAOGAN-29,2015-069A,2026-07-23T08:10:07.505760,14.83109806,.0000086,98.0026,233.0282,120.0370,240.0852,0,U,41038,999,57598,-.5904819E-5,-.102E-5,0
ASTRO-H (HITOMI),2016-012A,2026-07-23T05:51:58.404672,15.10656796,.00097035,30.9974,201.2912,255.7612,104.1948,0,U,41337,999,57274,.11463995E-3,.2041E-4,0
HXMT (HUIYAN),2017-034A,2026-07-22T18:48:05.436000,15.18737052,.00312561,43.0151,344.7924,8.7119,351.4266,0,U,42758,999,50307,.25187028E-3,.5151E-4,0
SAOCOM 1A,2018-076A,2026-07-23T06:06:04.543200,14.82148829,.00014525,97.8898,30.4792,87.7710,272.3669,0,U,43641,999,42144,-.31141704E-4,-.3E-5,0
H-2A R/B,2018-084L,2026-07-23T04:23:50.706528,15.46437470,.00202285,98.8521,90.9710,270.3716,89.5211,0,U,43682,999,42668,.42818827E-3,.21281E-3,0
SAOCOM 1B,2020-059A,2026-07-23T06:51:00.857376,14.82148296,.00015332,97.8904,29.6066,86.6038,273.5351,0,U,46265,999,31883,.94569838E-4,.701E-5,0
CSS (TIANHE),2021-035A,2026-07-23T00:49:30.417312,15.58280026,.00017398,41.4690,104.3124,306.7625,53.3054,0,U,48274,999,29876,.14911554E-3,.11304E-3,0
COSMOS 2550,2021-056A,2026-07-23T06:42:43.126848,15.33889469,.00085643,67.1441,350.7269,269.2841,90.7332,0,U,48865,999,28425,.17846066E-3,.5695E-4,0
CZ-2C R/B,2022-058K,2026-07-22T15:46:39.088704,15.64318676,.00299391,50.1859,338.6055,53.7112,306.6622,0,U,52794,999,23119,.45019493E-3,.4467E-3,0
CZ-2C R/B,2022-132E,2026-07-23T00:21:44.027424,15.75810705,.00084049,97.2895,212.7544,302.2652,57.7799,0,U,54039,999,21158,.48683869E-3,.75279E-3,0
GSLV R/B,2022-138AN,2026-07-23T04:56:50.257536,14.97411179,.00225321,87.3816,120.8893,25.2114,335.0212,0,U,54149,999,20420,.17683704E-3,.2094E-4,0
XRISM,2023-137A,2026-07-23T03:42:33.155424,15.12714303,.00078161,31.0018,126.5672,325.3983,34.6146,0,U,57800,999,15831,.24515933E-3,.4502E-4,0
ACS3,2024-077B,2026-07-23T05:07:03.080640,13.95762580,.01306144,97.1779,115.0326,27.5485,333.2526,0,U,59588,999,11306,.23571668E-1,.34656E-3,0
SPACEMOBILE-003,2024-163A,2026-07-23T00:49:19.736544,15.20673687,.00035967,52.9686,144.5962,220.2566,139.8162,0,U,61045,999,10322,.1267806E-3,.2495E-4,0
SPACEMOBILE-005,2024-163B,2026-07-23T05:09:29.939904,15.20624425,.0008301,52.9740,143.7232,219.1098,140.9297,0,U,61046,999,10324,.82556555E-4,.1507E-4,0
SPACEMOBILE-001,2024-163C,2026-07-23T05:07:00.750432,15.20678489,.00067452,52.9699,143.4348,217.4420,142.6105,0,U,61047,999,10324,.33608687E-4,.42E-5,0
SPACEMOBILE-002,2024-163D,2026-07-23T01:35:18.500640,15.20478362,.00047835,52.9773,144.1623,212.6215,147.4484,0,U,61048,999,10322,.10166567E-2,.22234E-3,0
